{"type": "FeatureCollection", "features": [ {"type": "Feature", "properties": {"norad_id": 31431, "name": "FENGYUN 1C DEB", "group": "fengyun-1c-debris", "lat": -22.11652677613907, "lon": -124.64349555432914, "alt_km": 945.4895867468449, "timestamp": "2025-12-09T11:33:55.082180+00:00", "meta": {"OBJECT_NAME": "FENGYUN 1C DEB", "OBJECT_ID": "1999-025BTT", "EPOCH": "2025-12-07T15:10:24.373056", "MEAN_MOTION": 14.03044754, "ECCENTRICITY": 0.01330657, "INCLINATION": 98.5386, "RA_OF_ASC_NODE": 230.1202, "ARG_OF_PERICENTER": 109.6865, "MEAN_ANOMALY": 251.8715, "EPHEMERIS_TYPE": 0, "CLASSIFICATION_TYPE": "U", "NORAD_CAT_ID": 31431, "ELEMENT_SET_NO": 999, "REV_AT_EPOCH": 94460, "BSTAR": 0.0022798155, "MEAN_MOTION_DOT": 3.793e-05, "MEAN_MOTION_DDOT": 0}, "tle": {"line1": "1 31431U 99025BTT 25341.63222654  .00003793  00000+0  22798-2 0  9993", "line2": "2 31431  98.5386 230.1202 0133065 109.6865 251.8715 14.03044754944600"}}, "geometry": {"type": "Point", "coordinates": [-124.64349555432914, -22.11652677613907]}}, {"type": "Feature", "properties": {"norad_id": 31433, "name": "FENGYUN 1C DEB", "group": "fengyun-1c-debris", "lat": 3.7706770696304392, "lon": -113.47418135016763, "alt_km": 750.2985273018412, "timestamp": "2025-12-09T11:33:55.082190+00:00", "meta": {"OBJECT_NAME": "FENGYUN 1C DEB", "OBJECT_ID": "1999-025BTV", "EPOCH": "2025-12-08T17:16:17.905152", "MEAN_MOTION": 14.25352682, "ECCENTRICITY": 0.0100209, "INCLINATION": 98.4097, "RA_OF_ASC_NODE": 246.3535, "ARG_OF_PERICENTER": 40.9188, "MEAN_ANOMALY": 14.6427, "EPHEMERIS_TYPE": 0, "CLASSIFICATION_TYPE": "U", "NORAD_CAT_ID": 31433, "ELEMENT_SET_NO": 999, "REV_AT_EPOCH": 95495, "BSTAR": 0.0029495, "MEAN_MOTION_DOT": 7.291e-05, "MEAN_MOTION_DDOT": 0}, "tle": {"line1": "1 31433U 99025BTV 25342.71965168  .00007291  00000+0  29495-2 0  9997", "line2": "2 31433  98.4097 246.3535 0100209  40.9188  14.6427 14.25352682954957"}}, "geometry": {"type": "Point", "coordinates": [-113.47418135016763, 3.7706770696304392]}}, {"type": "Feature", "properties": {"norad_id": 31435, "name": "FENGYUN 1C DEB", "group": "fengyun-1c-debris", "lat": 66.96155436909248, "lon": -2.9702484159702682, "alt_km": 685.548168339802, "timestamp": "2025-12-09T11:33:55.082201+00:00", "meta": {"OBJECT_NAME": "FENGYUN 1C DEB", "OBJECT_ID": "1999-025BTX", "EPOCH": "2025-12-08T18:31:25.575456", "MEAN_MOTION": 14.53421369, "ECCENTRICITY": 0.01488415, "INCLINATION": 99.0363, "RA_OF_ASC_NODE": 154.2889, "ARG_OF_PERICENTER": 191.9779, "MEAN_ANOMALY": 167.7861, "EPHEMERIS_TYPE": 0, "CLASSIFICATION_TYPE": "U", "NORAD_CAT_ID": 31435, "ELEMENT_SET_NO": 999, "REV_AT_EPOCH": 98315, "BSTAR": 0.00054621623, "MEAN_MOTION_DOT": 2.573e-05, "MEAN_MOTION_DDOT": 0}, "tle": {"line1": "1 31435U 99025BTX 25342.77182379  .00002573  00000+0  54622-3 0  9999", "line2": "2 31435  99.0363 154.2889 0148841 191.9779 167.7861 14.53421369983154"}}, "geometry": {"type": "Point", "coordinates": [-2.9702484159702682, 66.96155436909248]}}, {"type": "Feature", "properties": {"norad_id": 31436, "name": "FENGYUN 1C DEB", "group": "fengyun-1c-debris", "lat": -40.61104626625787, "lon": -156.2847114896665, "alt_km": 581.8431531367687, "timestamp": "2025-12-09T11:33:55.082211+00:00", "meta": {"OBJECT_NAME": "FENGYUN 1C DEB", "OBJECT_ID": "1999-025BTY", "EPOCH": "2025-12-08T13:28:51.661920", "MEAN_MOTION": 14.93022785, "ECCENTRICITY": 0.0044316, "INCLINATION": 98.882, "RA_OF_ASC_NODE": 194.9716, "ARG_OF_PERICENTER": 256.2521, "MEAN_ANOMALY": 159.099, "EPHEMERIS_TYPE": 0, "CLASSIFICATION_TYPE": "U", "NORAD_CAT_ID": 31436, "ELEMENT_SET_NO": 999, "REV_AT_EPOCH": 96814, "BSTAR": 0.005826, "MEAN_MOTION_DOT": 0.00062201, "MEAN_MOTION_DDOT": 0}, "tle": {"line1": "1 31436U 99025BTY 25342.56170905  .00062201  00000+0  58260-2 0  9994", "line2": "2 31436  98.8820 194.9716 0044316 256.2521 159.0990 14.93022785968144"}}, "geometry": {"type": "Point", "coordinates": [-156.2847114896665, -40.61104626625787]}}, {"type": "Feature", "properties": {"norad_id": 31437, "name": "FENGYUN 1C DEB", "group": "fengyun-1c-debris", "lat": 69.98635774541597, "lon": 39.05595964515743, "alt_km": 754.3575874906683, "timestamp": "2025-12-09T11:33:55.082227+00:00", "meta": {"OBJECT_NAME": "FENGYUN 1C DEB", "OBJECT_ID": "1999-025BTZ", "EPOCH": "2025-12-09T04:34:22.134144", "MEAN_MOTION": 14.42423123, "ECCENTRICITY": 0.0015028, "INCLINATION": 98.8624, "RA_OF_ASC_NODE": 64.1168, "ARG_OF_PERICENTER": 257.2782, "MEAN_ANOMALY": 102.6727, "EPHEMERIS_TYPE": 0, "CLASSIFICATION_TYPE": "U", "NORAD_CAT_ID": 31437, "ELEMENT_SET_NO": 999, "REV_AT_EPOCH": 96459, "BSTAR": 0.0027724, "MEAN_MOTION_DOT": 9.15e-05, "MEAN_MOTION_DDOT": 0}, "tle": {"line1": "1 31437U 99025BTZ 25343.19053396  .00009150  00000+0  27724-2 0  9994", "line2": "2 31437  98.8624  64.1168 0015028 257.2782 102.6727 14.42423123964596"}}, "geometry": {"type": "Point", "coordinates": [39.05595964515743, 69.98635774541597]}}, {"type": "Feature", "properties": {"norad_id": 31439, "name": "FENGYUN 1C DEB", "group": "fengyun-1c-debris", "lat": 46.021418176629545, "lon": -19.753222009981517, "alt_km": 960.1209755597774, "timestamp": "2025-12-09T11:33:55.082238+00:00", "meta": {"OBJECT_NAME": "FENGYUN 1C DEB", "OBJECT_ID": "1999-025BUB", "EPOCH": "2025-12-08T18:59:20.339232", "MEAN_MOTION": 13.95570536, "ECCENTRICITY": 0.01377276, "INCLINATION": 98.917, "RA_OF_ASC_NODE": 348.9419, "ARG_OF_PERICENTER": 172.6232, "MEAN_ANOMALY": 7.4049, "EPHEMERIS_TYPE": 0, "CLASSIFICATION_TYPE": "U", "NORAD_CAT_ID": 31439, "ELEMENT_SET_NO": 999, "REV_AT_EPOCH": 63177, "BSTAR": 0.0011064665, "MEAN_MOTION_DOT": 1.587e-05, "MEAN_MOTION_DDOT": 0}, "tle": {"line1": "1 31439U 99025BUB 25342.79120763  .00001587  00000+0  11065-2 0  9991", "line2": "2 31439  98.9170 348.9419 0137727 172.6232   7.4049 13.95570536631776"}}, "geometry": {"type": "Point", "coordinates": [-19.753222009981517, 46.021418176629545]}}, {"type": "Feature", "properties": {"norad_id": 31440, "name": "FENGYUN 1C DEB", "group": "fengyun-1c-debris", "lat": -46.733573212774004, "lon": -117.98451998526286, "alt_km": 791.4480541532657, "timestamp": "2025-12-09T11:33:55.082248+00:00", "meta": {"OBJECT_NAME": "FENGYUN 1C DEB", "OBJECT_ID": "1999-025BUC", "EPOCH": "2025-12-05T04:32:40.273728", "MEAN_MOTION": 14.36571049, "ECCENTRICITY": 0.00367226, "INCLINATION": 98.7465, "RA_OF_ASC_NODE": 67.0707, "ARG_OF_PERICENTER": 5.5428, "MEAN_ANOMALY": 354.6157, "EPHEMERIS_TYPE": 0, "CLASSIFICATION_TYPE": "U", "NORAD_CAT_ID": 31440, "ELEMENT_SET_NO": 999, "REV_AT_EPOCH": 96217, "BSTAR": 0.0037851683, "MEAN_MOTION_DOT": 0.00011182, "MEAN_MOTION_DDOT": 0}, "tle": {"line1": "1 31440U 99025BUC 25339.18935502  .00011182  00000+0  37852-2 0  9991", "line2": "2 31440  98.7465  67.0707 0036722   5.5428 354.6157 14.36571049962170"}}, "geometry": {"type": "Point", "coordinates": [-117.98451998526286, -46.733573212774004]}}, {"type": "Feature", "properties": {"norad_id": 31441, "name": "FENGYUN 1C DEB", "group": "fengyun-1c-debris", "lat": 44.7259715507278, "lon": 35.15905295912163, "alt_km": 704.8168336384342, "timestamp": "2025-12-09T11:33:55.082257+00:00", "meta": {"OBJECT_NAME": "FENGYUN 1C DEB", "OBJECT_ID": "1999-025BUD", "EPOCH": "2025-12-07T08:28:41.429856", "MEAN_MOTION": 14.7453624, "ECCENTRICITY": 0.01049906, "INCLINATION": 99.3118, "RA_OF_ASC_NODE": 203.3613, "ARG_OF_PERICENTER": 352.0587, "MEAN_ANOMALY": 7.8951, "EPHEMERIS_TYPE": 0, "CLASSIFICATION_TYPE": "U", "NORAD_CAT_ID": 31441, "ELEMENT_SET_NO": 999, "REV_AT_EPOCH": 64011, "BSTAR": 0.0080507132, "MEAN_MOTION_DOT": 0.0005895, "MEAN_MOTION_DDOT": 0}, "tle": {"line1": "1 31441U 99025BUD 25341.35325729  .00058950  00000+0  80507-2 0  9997", "line2": "2 31441  99.3118 203.3613 0104990 352.0587   7.8951 14.74536240640115"}}, "geometry": {"type": "Point", "coordinates": [35.15905295912163, 44.7259715507278]}}, {"type": "Feature", "properties": {"norad_id": 31442, "name": "FENGYUN 1C DEB", "group": "fengyun-1c-debris", "lat": -67.2757459533042, "lon": -131.4973192902789, "alt_km": 824.704351261933, "timestamp": "2025-12-09T11:33:55.082267+00:00", "meta": {"OBJECT_NAME": "FENGYUN 1C DEB", "OBJECT_ID": "1999-025BUE", "EPOCH": "2025-12-06T12:04:12.458208", "MEAN_MOTION": 14.33910903, "ECCENTRICITY": 0.00793626, "INCLINATION": 98.5308, "RA_OF_ASC_NODE": 66.5662, "ARG_OF_PERICENTER": 31.0829, "MEAN_ANOMALY": 329.5016, "EPHEMERIS_TYPE": 0, "CLASSIFICATION_TYPE": "U", "NORAD_CAT_ID": 31442, "ELEMENT_SET_NO": 999, "REV_AT_EPOCH": 97271, "BSTAR": 0.00066447514, "MEAN_MOTION_DOT": 1.875e-05, "MEAN_MOTION_DDOT": 0}, "tle": {"line1": "1 31442U 99025BUE 25340.50292197  .00001875  00000+0  66448-3 0  9999", "line2": "2 31442  98.5308  66.5662 0079362  31.0829 329.5016 14.33910903972715"}}, "geometry": {"type": "Point", "coordinates": [-131.4973192902789, -67.2757459533042]}}, {"type": "Feature", "properties": {"norad_id": 31443, "name": "FENGYUN 1C DEB", "group": "fengyun-1c-debris", "lat": 34.664396572706316, "lon": -90.89491458885823, "alt_km": 617.5981825730796, "timestamp": "2025-12-09T11:33:55.082279+00:00", "meta": {"OBJECT_NAME": "FENGYUN 1C DEB", "OBJECT_ID": "1999-025BUF", "EPOCH": "2025-12-07T12:29:55.144032", "MEAN_MOTION": 14.48576855, "ECCENTRICITY": 0.01922111, "INCLINATION": 99.2106, "RA_OF_ASC_NODE": 80.5241, "ARG_OF_PERICENTER": 113.7036, "MEAN_ANOMALY": 248.4452, "EPHEMERIS_TYPE": 0, "CLASSIFICATION_TYPE": "U", "NORAD_CAT_ID": 31443, "ELEMENT_SET_NO": 999, "REV_AT_EPOCH": 66866, "BSTAR": 0.0023218128, "MEAN_MOTION_DOT": 0.00010992, "MEAN_MOTION_DDOT": 0}, "tle": {"line1": "1 31443U 99025BUF 25341.52077713  .00010992  00000+0  23218-2 0  9995", "line2": "2 31443  99.2106  80.5241 0192211 113.7036 248.4452 14.48576855668665"}}, "geometry": {"type": "Point", "coordinates": [-90.89491458885823, 34.664396572706316]}}]}